1 25981U 99065B   19282.64857374  .00000074  00000-0  78208-4 0  9990
2 25981  45.0232 145.9357 0003070 109.0128 251.1051 14.32804895 36769
1 25981U 99065B   19282.85775144 +.00000074 +00000-0 +78230-4 0  9992
2 25981 045.0232 144.9526 0003079 110.4112 249.7066 14.32804999035903
1 25981U 99065B   19283.76418798  .00000079  00000-0  79900-4 0  9992
2 25981  45.0232 140.6926 0003131 116.2795 243.8373 14.32805467 36920
1 25981U 99065B   19283.90363980 +.00000077 +00000-0 +79105-4 0  9995
2 25981 045.0232 140.0373 0003142 117.1992 242.9175 14.32805497036058
